{
  "type": "FeatureCollection",
  "features": [
    {
      "type": "Feature",
      "properties": {
        "norad_id": 30882,
        "name": "FENGYUN 1C DEB",
        "group": "fengyun-1c-debris",
        "lat": -74.27330623074535,
        "lon": 64.77386198649178,
        "alt_km": 698.3616438503377,
        "timestamp": "2025-12-05T16:54:14.927084+00:00",
        "meta_object_name": "FENGYUN 1C DEB",
        "meta_object_id": "1999-025AXU",
        "meta_epoch": "2025-12-03T21:37:45.680160",
        "meta_mean_motion": 14.86420394,
        "meta_eccentricity": 0.01545465,
        "meta_inclination": 97.9448,
        "meta_ra_of_asc_node": 33.2392,
        "meta_arg_of_pericenter": 69.6846,
        "meta_mean_anomaly": 292.0901,
        "meta_ephemeris_type": 0,
        "meta_classification_type": "U",
        "meta_norad_cat_id": 30882,
        "meta_element_set_no": 999,
        "meta_rev_at_epoch": 99523,
        "meta_bstar": 0.0018680058,
        "meta_mean_motion_dot": 0.00020499,
        "meta_mean_motion_ddot": 0,
        "tle_line1": "1 30882U 99025AXU 25337.90122315  .00020499  00000+0  18680-2 0  9997",
        "tle_line2": "2 30882  97.9448  33.2392 0154546  69.6846 292.0901 14.86420394995232"
      },
      "geometry": {
        "type": "Point",
        "coordinates": [
          64.77386198649178,
          -74.27330623074535
        ]
      }
    },
    {
      "type": "Feature",
      "properties": {
        "norad_id": 30883,
        "name": "FENGYUN 1C DEB",
        "group": "fengyun-1c-debris",
        "lat": -32.290068658233004,
        "lon": 22.569073722260836,
        "alt_km": 853.3005492818147,
        "timestamp": "2025-12-05T16:54:14.927093+00:00",
        "meta_object_name": "FENGYUN 1C DEB",
        "meta_object_id": "1999-025AXV",
        "meta_epoch": "2025-12-02T21:45:33.352992",
        "meta_mean_motion": 14.14536044,
        "meta_eccentricity": 0.01114302,
        "meta_inclination": 98.3632,
        "meta_ra_of_asc_node": 14.6139,
        "meta_arg_of_pericenter": 242.4481,
        "meta_mean_anomaly": 244.9252,
        "meta_ephemeris_type": 0,
        "meta_classification_type": "U",
        "meta_norad_cat_id": 30883,
        "meta_element_set_no": 999,
        "meta_rev_at_epoch": 96778,
        "meta_bstar": 0.00025715885,
        "meta_mean_motion_dot": 4.83e-06,
        "meta_mean_motion_ddot": 0,
        "tle_line1": "1 30883U 99025AXV 25336.90663603  .00000483  00000+0  25716-3 0  9997",
        "tle_line2": "2 30883  98.3632  14.6139 0111430 242.4481 244.9252 14.14536044967781"
      },
      "geometry": {
        "type": "Point",
        "coordinates": [
          22.569073722260836,
          -32.290068658233004
        ]
      }
    },
    {
      "type": "Feature",
      "properties": {
        "norad_id": 30884,
        "name": "FENGYUN 1C DEB",
        "group": "fengyun-1c-debris",
        "lat": -52.038909809086626,
        "lon": 141.2996160146276,
        "alt_km": 684.980832491794,
        "timestamp": "2025-12-05T16:54:14.927102+00:00",
        "meta_object_name": "FENGYUN 1C DEB",
        "meta_object_id": "1999-025AXW",
        "meta_epoch": "2025-12-04T05:36:53.624736",
        "meta_mean_motion": 14.73101348,
        "meta_eccentricity": 0.0068161,
        "meta_inclination": 98.8891,
        "meta_ra_of_asc_node": 331.2629,
        "meta_arg_of_pericenter": 2.3375,
        "meta_mean_anomaly": 357.8136,
        "meta_ephemeris_type": 0,
        "meta_classification_type": "U",
        "meta_norad_cat_id": 30884,
        "meta_element_set_no": 999,
        "meta_rev_at_epoch": 98536,
        "meta_bstar": 0.0047715,
        "meta_mean_motion_dot": 0.00031948,
        "meta_mean_motion_ddot": 0,
        "tle_line1": "1 30884U 99025AXW 25338.23395399  .00031948  00000+0  47715-2 0  9992",
        "tle_line2": "2 30884  98.8891 331.2629 0068161   2.3375 357.8136 14.73101348985362"
      },
      "geometry": {
        "type": "Point",
        "coordinates": [
          141.2996160146276,
          -52.038909809086626
        ]
      }
    },
    {
      "type": "Feature",
      "properties": {
        "norad_id": 30885,
        "name": "FENGYUN 1C DEB",
        "group": "fengyun-1c-debris",
        "lat": 16.75641222262163,
        "lon": 2.4828279905991177,
        "alt_km": 720.3412893821078,
        "timestamp": "2025-12-05T16:54:14.927111+00:00",
        "meta_object_name": "FENGYUN 1C DEB",
        "meta_object_id": "1999-025AXX",
        "meta_epoch": "2025-12-03T19:29:29.285664",
        "meta_mean_motion": 14.49127363,
        "meta_eccentricity": 0.00545775,
        "meta_inclination": 99.0263,
        "meta_ra_of_asc_node": 177.7167,
        "meta_arg_of_pericenter": 246.2419,
        "meta_mean_anomaly": 131.4149,
        "meta_ephemeris_type": 0,
        "meta_classification_type": "U",
        "meta_norad_cat_id": 30885,
        "meta_element_set_no": 999,
        "meta_rev_at_epoch": 96848,
        "meta_bstar": 0.0043524888,
        "meta_mean_motion_dot": 0.00016853,
        "meta_mean_motion_ddot": 0,
        "tle_line1": "1 30885U 99025AXX 25337.81214451  .00016853  00000+0  43525-2 0  9998",
        "tle_line2": "2 30885  99.0263 177.7167 0054577 246.2419 131.4149 14.49127363968485"
      },
      "geometry": {
        "type": "Point",
        "coordinates": [
          2.4828279905991177,
          16.75641222262163
        ]
      }
    },
    {
      "type": "Feature",
      "properties": {
        "norad_id": 30886,
        "name": "FENGYUN 1C DEB",
        "group": "fengyun-1c-debris",
        "lat": 7.50396432666906,
        "lon": -128.86101321642877,
        "alt_km": 799.9978769626059,
        "timestamp": "2025-12-05T16:54:14.927120+00:00",
        "meta_object_name": "FENGYUN 1C DEB",
        "meta_object_id": "1999-025AXY",
        "meta_epoch": "2025-12-04T22:18:07.462656",
        "meta_mean_motion": 14.22689124,
        "meta_eccentricity": 0.0035956,
        "meta_inclination": 99.2094,
        "meta_ra_of_asc_node": 231.5538,
        "meta_arg_of_pericenter": 55.6703,
        "meta_mean_anomaly": 304.7867,
        "meta_ephemeris_type": 0,
        "meta_classification_type": "U",
        "meta_norad_cat_id": 30886,
        "meta_element_set_no": 999,
        "meta_rev_at_epoch": 96285,
        "meta_bstar": 0.0038763,
        "meta_mean_motion_dot": 8.698e-05,
        "meta_mean_motion_ddot": 0,
        "tle_line1": "1 30886U 99025AXY 25338.92925304  .00008698  00000+0  38763-2 0  9994",
        "tle_line2": "2 30886  99.2094 231.5538 0035956  55.6703 304.7867 14.22689124962855"
      },
      "geometry": {
        "type": "Point",
        "coordinates": [
          -128.86101321642877,
          7.50396432666906
        ]
      }
    },
    {
      "type": "Feature",
      "properties": {
        "norad_id": 30887,
        "name": "FENGYUN 1C DEB",
        "group": "fengyun-1c-debris",
        "lat": 41.03374428406743,
        "lon": -136.96989672627177,
        "alt_km": 925.192548653139,
        "timestamp": "2025-12-05T16:54:14.927129+00:00",
        "meta_object_name": "FENGYUN 1C DEB",
        "meta_object_id": "1999-025AXZ",
        "meta_epoch": "2025-12-05T02:57:21.487104",
        "meta_mean_motion": 14.44741769,
        "meta_eccentricity": 0.02641573,
        "meta_inclination": 98.3705,
        "meta_ra_of_asc_node": 35.0946,
        "meta_arg_of_pericenter": 310.9904,
        "meta_mean_anomaly": 46.8706,
        "meta_ephemeris_type": 0,
        "meta_classification_type": "U",
        "meta_norad_cat_id": 30887,
        "meta_element_set_no": 999,
        "meta_rev_at_epoch": 98018,
        "meta_bstar": 0.0012153989,
        "meta_mean_motion_dot": 6.43e-05,
        "meta_mean_motion_ddot": 0,
        "tle_line1": "1 30887U 99025AXZ 25339.12316536  .00006430  00000+0  12154-2 0  9997",
        "tle_line2": "2 30887  98.3705  35.0946 0264157 310.9904  46.8706 14.44741769980182"
      },
      "geometry": {
        "type": "Point",
        "coordinates": [
          -136.96989672627177,
          41.03374428406743
        ]
      }
    },
    {
      "type": "Feature",
      "properties": {
        "norad_id": 30888,
        "name": "FENGYUN 1C DEB",
        "group": "fengyun-1c-debris",
        "lat": 22.655182650296176,
        "lon": 141.06759460184114,
        "alt_km": 530.6972086526948,
        "timestamp": "2025-12-05T16:54:14.927138+00:00",
        "meta_object_name": "FENGYUN 1C DEB",
        "meta_object_id": "1999-025AYA",
        "meta_epoch": "2025-12-04T16:05:11.253696",
        "meta_mean_motion": 14.93601757,
        "meta_eccentricity": 0.0083067,
        "meta_inclination": 99.4819,
        "meta_ra_of_asc_node": 315.8218,
        "meta_arg_of_pericenter": 176.6996,
        "meta_mean_anomaly": 183.4784,
        "meta_ephemeris_type": 0,
        "meta_classification_type": "U",
        "meta_norad_cat_id": 30888,
        "meta_element_set_no": 999,
        "meta_rev_at_epoch": 99805,
        "meta_bstar": 0.0024667836,
        "meta_mean_motion_dot": 0.00027876,
        "meta_mean_motion_ddot": 0,
        "tle_line1": "1 30888U 99025AYA 25338.67026914  .00027876  00000+0  24668-2 0  9995",
        "tle_line2": "2 30888  99.4819 315.8218 0083067 176.6996 183.4784 14.93601757998054"
      },
      "geometry": {
        "type": "Point",
        "coordinates": [
          141.06759460184114,
          22.655182650296176
        ]
      }
    }
  ]
}